     3.00           N: NAVIGATION DATA  E: GALILEO          RINEX VERSION / TYPE
SimGEN V6.02.01     Spirent             20190301 000000 UTC PGM / RUN BY / DATE
GAL    1.0000D+02  0.0000D+00  0.0000D+00  0.0000D+00       IONOSPHERIC CORR
GAUT  0.0000000000D+00 0.000000000D+00 432000 2042          TIME SYSTEM CORR
    18                                                      LEAP SECONDS
                                                            END OF HEADER
E01 2019 03 01 00 00 00 0.000000000000D+00 0.000000000000D+00 0.000000000000D+00
     2.000000000000D+00 0.000000000000D+00 0.000000000000D+00 3.038733606958D+00
     0.000000000000D+00 0.000000000000D+00 0.000000000000D+00 5.440588203494D+03
     4.320000000000D+05 0.000000000000D+00 5.017546793550D-02 0.000000000000D+00
     9.773843811168D-01 0.000000000000D+00 0.000000000000D+00 0.000000000000D+00
     0.000000000000D+00 2.630000000000D+02 1.018000000000D+03 0.000000000000D+00
     2.500000000000D+01 0.000000000000D+00 0.000000000000D+00 0.000000000000D+00
     4.320000000000D+05 0.000000000000D+00 0.000000000000D+00 0.000000000000D+00
E02 2019 03 01 00 00 00 0.000000000000D+00 0.000000000000D+00 0.000000000000D+00
     2.000000000000D+00 0.000000000000D+00 0.000000000000D+00-2.459053536826D+00
     0.000000000000D+00 0.000000000000D+00 0.000000000000D+00 5.440588203494D+03
     4.320000000000D+05 0.000000000000D+00 5.017546793550D-02 0.000000000000D+00
     9.773843811168D-01 0.000000000000D+00 0.000000000000D+00 0.000000000000D+00
     0.000000000000D+00 2.630000000000D+02 1.018000000000D+03 0.000000000000D+00
     2.500000000000D+01 0.000000000000D+00 0.000000000000D+00 0.000000000000D+00
     4.320000000000D+05 0.000000000000D+00 0.000000000000D+00 0.000000000000D+00
E03 2019 03 01 00 00 00 0.000000000000D+00 0.000000000000D+00 0.000000000000D+00
     2.000000000000D+00 0.000000000000D+00 0.000000000000D+00-1.673655373429D+00
     0.000000000000D+00 0.000000000000D+00 0.000000000000D+00 5.440588203494D+03
     4.320000000000D+05 0.000000000000D+00 5.017546793550D-02 0.000000000000D+00
     9.773843811168D-01 0.000000000000D+00 0.000000000000D+00 0.000000000000D+00
     0.000000000000D+00 2.630000000000D+02 1.018000000000D+03 0.000000000000D+00
     2.500000000000D+01 0.000000000000D+00 0.000000000000D+00 0.000000000000D+00
     4.320000000000D+05 0.000000000000D+00 0.000000000000D+00 0.000000000000D+00
E04 2019 03 01 00 00 00 0.000000000000D+00 0.000000000000D+00 0.000000000000D+00
     2.000000000000D+00 0.000000000000D+00 0.000000000000D+00-8.882572100332D-01
     0.000000000000D+00 0.000000000000D+00 0.000000000000D+00 5.440588203494D+03
     4.320000000000D+05 0.000000000000D+00 5.017546793550D-02 0.000000000000D+00
     9.773843811168D-01 0.000000000000D+00 0.000000000000D+00 0.000000000000D+00
     0.000000000000D+00 2.630000000000D+02 1.018000000000D+03 0.000000000000D+00
     2.500000000000D+01 0.000000000000D+00 0.000000000000D+00 0.000000000000D+00
     4.320000000000D+05 0.000000000000D+00 0.000000000000D+00 0.000000000000D+00
E05 2019 03 01 00 00 00 0.000000000000D+00 0.000000000000D+00 0.000000000000D+00
     2.000000000000D+00 0.000000000000D+00 0.000000000000D+00-1.028590466370D-01
     0.000000000000D+00 0.000000000000D+00 0.000000000000D+00 5.440588203494D+03
     4.320000000000D+05 0.000000000000D+00 5.017546793550D-02 0.000000000000D+00
     9.773843811168D-01 0.000000000000D+00 0.000000000000D+00 0.000000000000D+00
     0.000000000000D+00 2.630000000000D+02 1.018000000000D+03 0.000000000000D+00
     2.500000000000D+01 0.000000000000D+00 0.000000000000D+00 0.000000000000D+00
     4.320000000000D+05 0.000000000000D+00 0.000000000000D+00 0.000000000000D+00
E06 2019 03 01 00 00 00 0.000000000000D+00 0.000000000000D+00 0.000000000000D+00
     2.000000000000D+00 0.000000000000D+00 0.000000000000D+00 6.825391167621D-01
     0.000000000000D+00 0.000000000000D+00 0.000000000000D+00 5.440588203494D+03
     4.320000000000D+05 0.000000000000D+00 5.017546793550D-02 0.000000000000D+00
     9.773843811168D-01 0.000000000000D+00 0.000000000000D+00 0.000000000000D+00
     0.000000000000D+00 2.630000000000D+02 1.018000000000D+03 0.000000000000D+00
     2.500000000000D+01 0.000000000000D+00 0.000000000000D+00 0.000000000000D+00
     4.320000000000D+05 0.000000000000D+00 0.000000000000D+00 0.000000000000D+00
E07 2019 03 01 00 00 00 0.000000000000D+00 0.000000000000D+00 0.000000000000D+00
     2.000000000000D+00 0.000000000000D+00 0.000000000000D+00 1.467937280158D+00
     0.000000000000D+00 0.000000000000D+00 0.000000000000D+00 5.440588203494D+03
     4.320000000000D+05 0.000000000000D+00 5.017546793550D-02 0.000000000000D+00
     9.773843811168D-01 0.000000000000D+00 0.000000000000D+00 0.000000000000D+00
     0.000000000000D+00 2.630000000000D+02 1.018000000000D+03 0.000000000000D+00
     2.500000000000D+01 0.000000000000D+00 0.000000000000D+00 0.000000000000D+00
     4.320000000000D+05 0.000000000000D+00 0.000000000000D+00 0.000000000000D+00
E08 2019 03 01 00 00 00 0.000000000000D+00 0.000000000000D+00 0.000000000000D+00
     2.000000000000D+00 0.000000000000D+00 0.000000000000D+00 2.253335443562D+00
     0.000000000000D+00 0.000000000000D+00 0.000000000000D+00 5.440588203494D+03
     4.320000000000D+05 0.000000000000D+00 5.017546793550D-02 0.000000000000D+00
     9.773843811168D-01 0.000000000000D+00 0.000000000000D+00 0.000000000000D+00
     0.000000000000D+00 2.630000000000D+02 1.018000000000D+03 0.000000000000D+00
     2.500000000000D+01 0.000000000000D+00 0.000000000000D+00 0.000000000000D+00
     4.320000000000D+05 0.000000000000D+00 0.000000000000D+00 0.000000000000D+00
E09 2019 03 01 00 00 00 0.000000000000D+00 0.000000000000D+00 0.000000000000D+00
     2.000000000000D+00 0.000000000000D+00 0.000000000000D+00-2.982652312421D+00
     0.000000000000D+00 0.000000000000D+00 0.000000000000D+00 5.440588203494D+03
     4.320000000000D+05 0.000000000000D+00 2.144570570330D+00 0.000000000000D+00
     9.773843811168D-01 0.000000000000D+00 0.000000000000D+00 0.000000000000D+00
     0.000000000000D+00 2.630000000000D+02 1.018000000000D+03 0.000000000000D+00
     2.500000000000D+01 0.000000000000D+00 0.000000000000D+00 0.000000000000D+00
     4.320000000000D+05 0.000000000000D+00 0.000000000000D+00 0.000000000000D+00
E10 2019 03 01 00 00 00 0.000000000000D+00 0.000000000000D+00 0.000000000000D+00
     2.000000000000D+00 0.000000000000D+00 0.000000000000D+00-2.197254149024D+00
     0.000000000000D+00 0.000000000000D+00 0.000000000000D+00 5.440588203494D+03
     4.320000000000D+05 0.000000000000D+00 2.144570570330D+00 0.000000000000D+00
     9.773843811168D-01 0.000000000000D+00 0.000000000000D+00 0.000000000000D+00
     0.000000000000D+00 2.630000000000D+02 1.018000000000D+03 0.000000000000D+00
     2.500000000000D+01 0.000000000000D+00 0.000000000000D+00 0.000000000000D+00
     4.320000000000D+05 0.000000000000D+00 0.000000000000D+00 0.000000000000D+00
E11 2019 03 01 00 00 00 0.000000000000D+00 0.000000000000D+00 0.000000000000D+00
     2.000000000000D+00 0.000000000000D+00 0.000000000000D+00-1.411855985628D+00
     0.000000000000D+00 0.000000000000D+00 0.000000000000D+00 5.440588203494D+03
     4.320000000000D+05 0.000000000000D+00 2.144570570330D+00 0.000000000000D+00
     9.773843811168D-01 0.000000000000D+00 0.000000000000D+00 0.000000000000D+00
     0.000000000000D+00 2.630000000000D+02 1.018000000000D+03 0.000000000000D+00
     2.500000000000D+01 0.000000000000D+00 0.000000000000D+00 0.000000000000D+00
     4.320000000000D+05 0.000000000000D+00 0.000000000000D+00 0.000000000000D+00
E12 2019 03 01 00 00 00 0.000000000000D+00 0.000000000000D+00 0.000000000000D+00
     2.000000000000D+00 0.000000000000D+00 0.000000000000D+00-6.264578222320D-01
     0.000000000000D+00 0.000000000000D+00 0.000000000000D+00 5.440588203494D+03
     4.320000000000D+05 0.000000000000D+00 2.144570570330D+00 0.000000000000D+00
     9.773843811168D-01 0.000000000000D+00 0.000000000000D+00 0.000000000000D+00
     0.000000000000D+00 2.630000000000D+02 1.018000000000D+03 0.000000000000D+00
     2.500000000000D+01 0.000000000000D+00 0.000000000000D+00 0.000000000000D+00
     4.320000000000D+05 0.000000000000D+00 0.000000000000D+00 0.000000000000D+00
E13 2019 03 01 00 00 00 0.000000000000D+00 0.000000000000D+00 0.000000000000D+00
     2.000000000000D+00 0.000000000000D+00 0.000000000000D+00 1.589403411641D-01
     0.000000000000D+00 0.000000000000D+00 0.000000000000D+00 5.440588203494D+03
     4.320000000000D+05 0.000000000000D+00 2.144570570330D+00 0.000000000000D+00
     9.773843811168D-01 0.000000000000D+00 0.000000000000D+00 0.000000000000D+00
     0.000000000000D+00 2.630000000000D+02 1.018000000000D+03 0.000000000000D+00
     2.500000000000D+01 0.000000000000D+00 0.000000000000D+00 0.000000000000D+00
     4.320000000000D+05 0.000000000000D+00 0.000000000000D+00 0.000000000000D+00
E14 2019 03 01 00 00 00 0.000000000000D+00 0.000000000000D+00 0.000000000000D+00
     2.000000000000D+00 0.000000000000D+00 0.000000000000D+00 9.443385045633D-01
     0.000000000000D+00 0.000000000000D+00 0.000000000000D+00 5.440588203494D+03
     4.320000000000D+05 0.000000000000D+00 2.144570570330D+00 0.000000000000D+00
     9.773843811168D-01 0.000000000000D+00 0.000000000000D+00 0.000000000000D+00
     0.000000000000D+00 2.630000000000D+02 1.018000000000D+03 0.000000000000D+00
     2.500000000000D+01 0.000000000000D+00 0.000000000000D+00 0.000000000000D+00
     4.320000000000D+05 0.000000000000D+00 0.000000000000D+00 0.000000000000D+00
